FENGYUN 1C DEB          
1 29975U 99025KZ  17346.32287742  .00000305  00000-0  23734-3 0  9993
2 29975  99.2105 293.9821 0115951  44.3426 109.0829 13.96880834556363
